ONEWEB-0197             
1 48236U 21031AC  25214.82666900  .00000201  00000+0  50685-3 0  9990
2 48236  87.9058 353.0439 0001848 107.2321 252.9011 13.14502959206362
ONEWEB-0194             
1 48237U 21031AD  25214.42466103 -.00000107  00000+0 -32229-3 0  9991
2 48237  87.9072 353.1326 0002053  94.4329 265.7036 13.14504175206483
ONEWEB-0193             
1 48238U 21031AE  25214.44051754  .00000047  00000+0  93215-4 0  9990
2 48238  87.9065 353.1361 0001831  91.0914 269.0426 13.14505153206433
ONEWEB-0191             
1 48239U 21031AF  25214.37550671  .00000274  00000+0  70350-3 0  9991
2 48239  87.9069 353.1213 0001959  90.3046 269.8308 13.14503984206283
ONEWEB-0195             
1 48240U 21031AG  25214.42862394 -.00000070  00000+0 -22352-3 0  9992
2 48240  87.9068 353.1082 0001525  87.4436 272.6868 13.14501952206272
ONEWEB-0201             
1 48241U 21031AH  25214.79746652 -.00000233  00000+0 -66165-3 0  9992
2 48241  87.9073 353.0829 0001548 103.3109 256.8193 13.14502019206558
ONEWEB-0207             
1 48242U 21031AJ  25214.39691358  .00000060  00000+0  12659-3 0  9996
2 48242  87.9071 353.1223 0001692 103.7841 256.3477 13.14503132206415
ONEWEB-0208             
1 48243U 21031AK  25214.45478117  .00000300  00000+0  77358-3 0  9994
2 48243  87.9071 353.1258 0001669  92.3941 267.7379 13.14504602206434
ONEWEB-0200             
1 48244U 21031AL  25214.41830192 -.00000132  00000+0 -38933-3 0  9997
2 48244  87.9069 353.1242 0001726  95.7163 264.4164 13.14504864206359
ONEWEB-0217             
1 48245U 21031AM  25214.43417183  .00000063  00000+0  13532-3 0  9990
2 48245  87.9068 353.1056 0001666  88.6334 271.4986 13.14504494206300
ONEWEB-0211             
1 48767U 21045A   25214.34995376  .00000051  00000+0  99870-4 0  9996
2 48767  87.9083 322.7239 0002021  89.3531 270.7831 13.16083090202509
ONEWEB-0223             
1 48768U 21045B   25214.58911539  .00000099  00000+0  23018-3 0  9994
2 48768  87.9077 322.7263 0002138  85.6976 274.4399 13.15548243202517
ONEWEB-0230             
1 48769U 21045C   25214.33243177 -.00000113  00000+0 -33374-3 0  9999
2 48769  87.9067 322.8122 0002045 102.5483 257.5876 13.15548427202742
ONEWEB-0237             
1 48770U 21045D   25214.32133421 -.00000028  00000+0 -10881-3 0  9993
2 48770  87.9093 322.8008 0002142  91.8121 268.3255 13.15548829202469
ONEWEB-0235             
1 48771U 21045E   25214.37204107  .00000162  00000+0  39494-3 0  9997
2 48771  87.9083 322.7678 0002335  87.2635 272.8762 13.15549865202468
ONEWEB-0242             
1 48772U 21045F   25214.59386204  .00000140  00000+0  33714-3 0  9996
2 48772  87.9083 322.7090 0002138  96.1453 263.9921 13.15550554202538
ONEWEB-0241             
1 48773U 21045G   25214.58119162  .00000049  00000+0  96340-4 0  9996
2 48773  87.9066 322.7648 0001869  84.9688 275.1656 13.15549775202447
