[{"OBJECT_NAME":"ONEWEB-0197","OBJECT_ID":"2021-031AC","EPOCH":"2025-08-02T19:50:24.201600","MEAN_MOTION":13.14502959,"ECCENTRICITY":0.0001848,"INCLINATION":87.9058,"RA_OF_ASC_NODE":353.0439,"ARG_OF_PERICENTER":107.2321,"MEAN_ANOMALY":252.9011,"EPHEMERIS_TYPE":0,"CLASSIFICATION_TYPE":"U","NORAD_CAT_ID":48236,"ELEMENT_SET_NO":999,"REV_AT_EPOCH":20636,"BSTAR":0.00050685,"MEAN_MOTION_DOT":2.01e-6,"MEAN_MOTION_DDOT":0},{"OBJECT_NAME":"ONEWEB-0194","OBJECT_ID":"2021-031AD","EPOCH":"2025-08-02T10:11:30.712992","MEAN_MOTION":13.14504175,"ECCENTRICITY":0.0002053,"INCLINATION":87.9072,"RA_OF_ASC_NODE":353.1326,"ARG_OF_PERICENTER":94.4329,"MEAN_ANOMALY":265.7036,"EPHEMERIS_TYPE":0,"CLASSIFICATION_TYPE":"U","NORAD_CAT_ID":48237,"ELEMENT_SET_NO":999,"REV_AT_EPOCH":20648,"BSTAR":-0.00032229,"MEAN_MOTION_DOT":-1.07e-6,"MEAN_MOTION_DDOT":0},{"OBJECT_NAME":"ONEWEB-0193","OBJECT_ID":"2021-031AE","EPOCH":"2025-08-02T10:34:20.715456","MEAN_MOTION":13.14505153,"ECCENTRICITY":0.0001831,"INCLINATION":87.9065,"RA_OF_ASC_NODE":353.1361,"ARG_OF_PERICENTER":91.0914,"MEAN_ANOMALY":269.0426,"EPHEMERIS_TYPE":0,"CLASSIFICATION_TYPE":"U","NORAD_CAT_ID":48238,"ELEMENT_SET_NO":999,"REV_AT_EPOCH":20643,"BSTAR":9.3215e-5,"MEAN_MOTION_DOT":4.7e-7,"MEAN_MOTION_DDOT":0},{"OBJECT_NAME":"ONEWEB-0191","OBJECT_ID":"2021-031AF","EPOCH":"2025-08-02T09:00:43.779744","MEAN_MOTION":13.14503984,"ECCENTRICITY":0.0001959,"INCLINATION":87.9069,"RA_OF_ASC_NODE":353.1213,"ARG_OF_PERICENTER":90.3046,"MEAN_ANOMALY":269.8308,"EPHEMERIS_TYPE":0,"CLASSIFICATION_TYPE":"U","NORAD_CAT_ID":48239,"ELEMENT_SET_NO":999,"REV_AT_EPOCH":20628,"BSTAR":0.0007035,"MEAN_MOTION_DOT":2.74e-6,"MEAN_MOTION_DDOT":0},{"OBJECT_NAME":"ONEWEB-0195","OBJECT_ID":"2021-031AG","EPOCH":"2025-08-02T10:17:13.108416","MEAN_MOTION":13.14501952,"ECCENTRICITY":0.0001525,"INCLINATION":87.9068,"RA_OF_ASC_NODE":353.1082,"ARG_OF_PERICENTER":87.4436,"MEAN_ANOMALY":272.6868,"EPHEMERIS_TYPE":0,"CLASSIFICATION_TYPE":"U","NORAD_CAT_ID":48240,"ELEMENT_SET_NO":999,"REV_AT_EPOCH":20627,"BSTAR":-0.00022352,"MEAN_MOTION_DOT":-7.0e-7,"MEAN_MOTION_DDOT":0},{"OBJECT_NAME":"ONEWEB-0201","OBJECT_ID":"2021-031AH","EPOCH":"2025-08-02T19:08:21.107328","MEAN_MOTION":13.14502019,"ECCENTRICITY":0.0001548,"INCLINATION":87.9073,"RA_OF_ASC_NODE":353.0829,"ARG_OF_PERICENTER":103.3109,"MEAN_ANOMALY":256.8193,"EPHEMERIS_TYPE":0,"CLASSIFICATION_TYPE":"U","NORAD_CAT_ID":48241,"ELEMENT_SET_NO":999,"REV_AT_EPOCH":20655,"BSTAR":-0.00066165,"MEAN_MOTION_DOT":-2.33e-6,"MEAN_MOTION_DDOT":0},{"OBJECT_NAME":"ONEWEB-0207","OBJECT_ID":"2021-031AJ","EPOCH":"2025-08-02T09:31:33.333312","MEAN_MOTION":13.14503132,"ECCENTRICITY":0.0001692,"INCLINATION":87.9071,"RA_OF_ASC_NODE":353.1223,"ARG_OF_PERICENTER":103.7841,"MEAN_ANOMALY":256.3477,"EPHEMERIS_TYPE":0,"CLASSIFICATION_TYPE":"U","NORAD_CAT_ID":48242,"ELEMENT_SET_NO":999,"REV_AT_EPOCH":20641,"BSTAR":0.00012659,"MEAN_MOTION_DOT":6.0e-7,"MEAN_MOTION_DDOT":0},{"OBJECT_NAME":"ONEWEB-0208","OBJECT_ID":"2021-031AK","EPOCH":"2025-08-02T10:54:53.093088","MEAN_MOTION":13.14504602,"ECCENTRICITY":0.0001669,"INCLINATION":87.9071,"RA_OF_ASC_NODE":353.1258,"ARG_OF_PERICENTER":92.3941,"MEAN_ANOMALY":267.7379,"EPHEMERIS_TYPE":0,"CLASSIFICATION_TYPE":"U","NORAD_CAT_ID":48243,"ELEMENT_SET_NO":999,"REV_AT_EPOCH":20643,"BSTAR":0.00077358,"MEAN_MOTION_DOT":3.0e-6,"MEAN_MOTION_DDOT":0},{"OBJECT_NAME":"ONEWEB-0200","OBJECT_ID":"2021-031AL","EPOCH":"2025-08-02T10:02:21.285888","MEAN_MOTION":13.14504864,"ECCENTRICITY":0.0001726,"INCLINATION":87.9069,"RA_OF_ASC_NODE":353.1242,"ARG_OF_PERICENTER":95.7163,"MEAN_ANOMALY":264.4164,"EPHEMERIS_TYPE":0,"CLASSIFICATION_TYPE":"U","NORAD_CAT_ID":48244,"ELEMENT_SET_NO":999,"REV_AT_EPOCH":20635,"BSTAR":-0.00038933,"MEAN_MOTION_DOT":-1.32e-6,"MEAN_MOTION_DDOT":0},{"OBJECT_NAME":"ONEWEB-0217","OBJECT_ID":"2021-031AM","EPOCH":"2025-08-02T10:25:12.446112","MEAN_MOTION":13.14504494,"ECCENTRICITY":0.0001666,"INCLINATION":87.9068,"RA_OF_ASC_NODE":353.1056,"ARG_OF_PERICENTER":88.6334,"MEAN_ANOMALY":271.4986,"EPHEMERIS_TYPE":0,"CLASSIFICATION_TYPE":"U","NORAD_CAT_ID":48245,"ELEMENT_SET_NO":999,"REV_AT_EPOCH":20630,"BSTAR":0.00013532,"MEAN_MOTION_DOT":6.3e-7,"MEAN_MOTION_DDOT":0},{"OBJECT_NAME":"ONEWEB-0211","OBJECT_ID":"2021-045A","EPOCH":"2025-08-02T08:23:56.004864","MEAN_MOTION":13.1608309,"ECCENTRICITY":0.0002021,"INCLINATION":87.9083,"RA_OF_ASC_NODE":322.7239,"ARG_OF_PERICENTER":89.3531,"MEAN_ANOMALY":270.7831,"EPHEMERIS_TYPE":0,"CLASSIFICATION_TYPE":"U","NORAD_CAT_ID":48767,"ELEMENT_SET_NO":999,"REV_AT_EPOCH":20250,"BSTAR":9.987e-5,"MEAN_MOTION_DOT":5.1e-7,"MEAN_MOTION_DDOT":0},{"OBJECT_NAME":"ONEWEB-0223","OBJECT_ID":"2021-045B","EPOCH":"2025-08-02T14:08:19.569696","MEAN_MOTION":13.15548243,"ECCENTRICITY":0.0002138,"INCLINATION":87.9077,"RA_OF_ASC_NODE":322.7263,"ARG_OF_PERICENTER":85.6976,"MEAN_ANOMALY":274.4399,"EPHEMERIS_TYPE":0,"CLASSIFICATION_TYPE":"U","NORAD_CAT_ID":48768,"ELEMENT_SET_NO":999,"REV_AT_EPOCH":20251,"BSTAR":0.00023018,"MEAN_MOTION_DOT":9.9e-7,"MEAN_MOTION_DDOT":0},{"OBJECT_NAME":"ONEWEB-0230","OBJECT_ID":"2021-045C","EPOCH":"2025-08-02T07:58:42.104928","MEAN_MOTION":13.15548427,"ECCENTRICITY":0.0002045,"INCLINATION":87.9067,"RA_OF_ASC_NODE":322.8122,"ARG_OF_PERICENTER":102.5483,"MEAN_ANOMALY":257.5876,"EPHEMERIS_TYPE":0,"CLASSIFICATION_TYPE":"U","NORAD_CAT_ID":48769,"ELEMENT_SET_NO":999,"REV_AT_EPOCH":20274,"BSTAR":-0.00033374,"MEAN_MOTION_DOT":-1.13e-6,"MEAN_MOTION_DDOT":0},{"OBJECT_NAME":"ONEWEB-0237","OBJECT_ID":"2021-045D","EPOCH":"2025-08-02T07:42:43.275744","MEAN_MOTION":13.15548829,"ECCENTRICITY":0.0002142,"INCLINATION":87.9093,"RA_OF_ASC_NODE":322.8008,"ARG_OF_PERICENTER":91.8121,"MEAN_ANOMALY":268.3255,"EPHEMERIS_TYPE":0,"CLASSIFICATION_TYPE":"U","NORAD_CAT_ID":48770,"ELEMENT_SET_NO":999,"REV_AT_EPOCH":20246,"BSTAR":-0.00010881,"MEAN_MOTION_DOT":-2.8e-7,"MEAN_MOTION_DDOT":0},{"OBJECT_NAME":"ONEWEB-0235","OBJECT_ID":"2021-045E","EPOCH":"2025-08-02T08:55:44.348448","MEAN_MOTION":13.15549865,"ECCENTRICITY":0.0002335,"INCLINATION":87.9083,"RA_OF_ASC_NODE":322.7678,"ARG_OF_PERICENTER":87.2635,"MEAN_ANOMALY":272.8762,"EPHEMERIS_TYPE":0,"CLASSIFICATION_TYPE":"U","NORAD_CAT_ID":48771,"ELEMENT_SET_NO":999,"REV_AT_EPOCH":20246,"BSTAR":0.00039494,"MEAN_MOTION_DOT":1.62e-6,"MEAN_MOTION_DDOT":0},{"OBJECT_NAME":"ONEWEB-0242","OBJECT_ID":"2021-045F","EPOCH":"2025-08-02T14:15:09.680256","MEAN_MOTION":13.15550554,"ECCENTRICITY":0.0002138,"INCLINATION":87.9083,"RA_OF_ASC_NODE":322.709,"ARG_OF_PERICENTER":96.1453,"MEAN_ANOMALY":263.9921,"EPHEMERIS_TYPE":0,"CLASSIFICATION_TYPE":"U","NORAD_CAT_ID":48772,"ELEMENT_SET_NO":999,"REV_AT_EPOCH":20253,"BSTAR":0.00033714,"MEAN_MOTION_DOT":1.4e-6,"MEAN_MOTION_DDOT":0},{"OBJECT_NAME":"ONEWEB-0241","OBJECT_ID":"2021-045G","EPOCH":"2025-08-02T13:56:54.955968","MEAN_MOTION":13.15549775,"ECCENTRICITY":0.0001869,"INCLINATION":87.9066,"RA_OF_ASC_NODE":322.7648,"ARG_OF_PERICENTER":84.9688,"MEAN_ANOMALY":275.1656,"EPHEMERIS_TYPE":0,"CLASSIFICATION_TYPE":"U","NORAD_CAT_ID":48773,"ELEMENT_SET_NO":999,"REV_AT_EPOCH":20244,"BSTAR":9.634e-5,"MEAN_MOTION_DOT":4.9e-7,"MEAN_MOTION_DDOT":0}]
